[{"OBJECT_NAME":"HULIANWANG DIGUI-108","OBJECT_ID":"2025-285D","EPOCH":"2026-03-09T18:19:57.845280","MEAN_MOTION":13.29331251,"ECCENTRICITY":1.077e-5,"INCLINATION":50.0042,"RA_OF_ASC_NODE":142.5767,"ARG_OF_PERICENTER":319.2563,"MEAN_ANOMALY":40.8301,"EPHEMERIS_TYPE":0,"CLASSIFICATION_TYPE":"U","NORAD_CAT_ID":66918,"ELEMENT_SET_NO":999,"REV_AT_EPOCH":1283,"BSTAR":0.00011054904,"MEAN_MOTION_DOT":-7.3e-7,"MEAN_MOTION_DDOT":0},{"OBJECT_NAME":"THORAD DELTA 1 DEB","OBJECT_ID":"1974-089L","EPOCH":"2026-03-09T16:24:56.292768","MEAN_MOTION":12.47371797,"ECCENTRICITY":0.04226965,"INCLINATION":101.1768,"RA_OF_ASC_NODE":329.2419,"ARG_OF_PERICENTER":151.8164,"MEAN_ANOMALY":269.3302,"EPHEMERIS_TYPE":0,"CLASSIFICATION_TYPE":"U","NORAD_CAT_ID":8142,"ELEMENT_SET_NO":999,"REV_AT_EPOCH":27006,"BSTAR":-0.065453773,"MEAN_MOTION_DOT":-0.00013283,"MEAN_MOTION_DDOT":0}]
